SENTINEL-3A             
1 41335U 16011A   26204.26329476  .00000067  00000+0  45588-4 0  9994
2 41335  98.6231 271.1252 0001289  86.9699 273.1629 14.26735984543207
SENTINEL-3B             
1 43437U 18039A   26204.16632218  .00000076  00000+0  49282-4 0  9996
2 43437  98.6229 271.1788 0001305 118.4343 241.6969 14.26738051429252
